{
  "type": "FeatureCollection",
  "features": [
    {
      "type": "Feature",
      "properties": {
        "sr_no": 3,
        "plot_type": "Demo",
        "parcel_id": "3D"
      },
      "geometry": {
        "type": "Polygon",
        "coordinates": [
          [
            [
              75.716872,
              19.450937
            ],
            [
              75.717881,
              19.450776
            ],
            [
              75.717658,
              19.449117
            ],
            [
              75.716645,
              19.44925
            ],
            [
              75.716872,
              19.450937
            ]
          ]
        ]
      }
    },
    {
      "type": "Feature",
      "properties": {
        "sr_no": 3,
        "plot_type": "Control",
        "parcel_id": "3C"
      },
      "geometry": {
        "type": "Polygon",
        "coordinates": [
          [
            [
              75.717351,
              19.44813
            ],
            [
              75.717178,
              19.447441
            ],
            [
              75.715646,
              19.447823
            ],
            [
              75.715795,
              19.448515
            ],
            [
              75.717351,
              19.44813
            ]
          ]
        ]
      }
    },
    {
      "type": "Feature",
      "properties": {
        "sr_no": 4,
        "plot_type": "Demo",
        "parcel_id": "4D"
      },
      "geometry": {
        "type": "Polygon",
        "coordinates": [
          [
            [
              75.715928,
              19.442577
            ],
            [
              75.717672,
              19.44239
            ],
            [
              75.717805,
              19.443017
            ],
            [
              75.716162,
              19.443227
            ],
            [
              75.715928,
              19.442577
            ]
          ]
        ]
      }
    },
    {
      "type": "Feature",
      "properties": {
        "sr_no": 4,
        "plot_type": "Control",
        "parcel_id": "4C"
      },
      "geometry": {
        "type": "Polygon",
        "coordinates": [
          [
            [
              75.717676,
              19.442389
            ],
            [
              75.719424,
              19.442206
            ],
            [
              75.71947,
              19.442862
            ],
            [
              75.717805,
              19.443022
            ],
            [
              75.717676,
              19.442389
            ]
          ]
        ]
      }
    },
    {
      "type": "Feature",
      "properties": {
        "sr_no": 5,
        "plot_type": "Demo",
        "parcel_id": "5D"
      },
      "geometry": {
        "type": "Polygon",
        "coordinates": [
          [
            [
              75.715771,
              19.442001
            ],
            [
              75.717544,
              19.441737
            ],
            [
              75.717678,
              19.442388
            ],
            [
              75.715928,
              19.442577
            ],
            [
              75.715771,
              19.442001
            ]
          ]
        ]
      }
    },
    {
      "type": "Feature",
      "properties": {
        "sr_no": 5,
        "plot_type": "Control",
        "parcel_id": "5C"
      },
      "geometry": {
        "type": "Polygon",
        "coordinates": [
          [
            [
              75.717551,
              19.441735
            ],
            [
              75.719429,
              19.441558
            ],
            [
              75.719429,
              19.442191
            ],
            [
              75.717681,
              19.442381
            ],
            [
              75.717551,
              19.441735
            ]
          ]
        ]
      }
    },
    {
      "type": "Feature",
      "properties": {
        "sr_no": 8,
        "plot_type": "Demo",
        "parcel_id": "8D"
      },
      "geometry": {
        "type": "Polygon",
        "coordinates": [
          [
            [
              75.829726,
              19.429983
            ],
            [
              75.829065,
              19.429973
            ],
            [
              75.829533,
              19.432153
            ],
            [
              75.829998,
              19.432142
            ],
            [
              75.829726,
              19.429983
            ]
          ]
        ]
      }
    },
    {
      "type": "Feature",
      "properties": {
        "sr_no": 8,
        "plot_type": "Control",
        "parcel_id": "8C"
      },
      "geometry": {
        "type": "Polygon",
        "coordinates": [
          [
            [
              75.829716,
              19.429898
            ],
            [
              75.830456,
              19.42988
            ],
            [
              75.830418,
              19.43148
            ],
            [
              75.829919,
              19.431498
            ],
            [
              75.829716,
              19.429898
            ]
          ]
        ]
      }
    },
    {
      "type": "Feature",
      "properties": {
        "sr_no": 9,
        "plot_type": "Demo",
        "parcel_id": "9D"
      },
      "geometry": {
        "type": "Polygon",
        "coordinates": [
          [
            [
              75.823325,
              19.439237
            ],
            [
              75.824303,
              19.43922
            ],
            [
              75.824303,
              19.440124
            ],
            [
              75.823355,
              19.440011
            ],
            [
              75.823325,
              19.439237
            ]
          ]
        ]
      }
    },
    {
      "type": "Feature",
      "properties": {
        "sr_no": 9,
        "plot_type": "Control",
        "parcel_id": "9C"
      },
      "geometry": {
        "type": "Polygon",
        "coordinates": [
          [
            [
              75.822798,
              19.439259
            ],
            [
              75.823365,
              19.439248
            ],
            [
              75.823365,
              19.44008
            ],
            [
              75.822876,
              19.439973
            ],
            [
              75.822798,
              19.439259
            ]
          ]
        ]
      }
    },
    {
      "type": "Feature",
      "properties": {
        "sr_no": 10,
        "plot_type": "Demo",
        "parcel_id": "10D"
      },
      "geometry": {
        "type": "Polygon",
        "coordinates": [
          [
            [
              75.811966,
              19.43282
            ],
            [
              75.811815,
              19.432131
            ],
            [
              75.81053,
              19.432151
            ],
            [
              75.810617,
              19.432614
            ],
            [
              75.811966,
              19.43282
            ]
          ]
        ]
      }
    },
    {
      "type": "Feature",
      "properties": {
        "sr_no": 10,
        "plot_type": "Control",
        "parcel_id": "10C"
      },
      "geometry": {
        "type": "Polygon",
        "coordinates": [
          [
            [
              75.812006,
              19.433173
            ],
            [
              75.812067,
              19.43348
            ],
            [
              75.810187,
              19.433784
            ],
            [
              75.810116,
              19.4334
            ],
            [
              75.812006,
              19.433173
            ]
          ]
        ]
      }
    },
    {
      "type": "Feature",
      "properties": {
        "sr_no": 13,
        "plot_type": "Demo",
        "parcel_id": "13D"
      },
      "geometry": {
        "type": "Polygon",
        "coordinates": [
          [
            [
              75.707911,
              19.475757
            ],
            [
              75.70717,
              19.475835
            ],
            [
              75.707207,
              19.476446
            ],
            [
              75.707923,
              19.476399
            ],
            [
              75.707911,
              19.475757
            ]
          ]
        ]
      }
    },
    {
      "type": "Feature",
      "properties": {
        "sr_no": 13,
        "plot_type": "Control",
        "parcel_id": "13C"
      },
      "geometry": {
        "type": "Polygon",
        "coordinates": [
          [
            [
              75.707153,
              19.4756
            ],
            [
              75.706591,
              19.475722
            ],
            [
              75.706568,
              19.476514
            ],
            [
              75.707219,
              19.476423
            ],
            [
              75.707153,
              19.4756
            ]
          ]
        ]
      }
    },
    {
      "type": "Feature",
      "properties": {
        "sr_no": 14,
        "plot_type": "Demo",
        "parcel_id": "14D"
      },
      "geometry": {
        "type": "Polygon",
        "coordinates": [
          [
            [
              75.747194,
              19.473191
            ],
            [
              75.74723,
              19.473465
            ],
            [
              75.748669,
              19.473415
            ],
            [
              75.748583,
              19.472939
            ],
            [
              75.747194,
              19.473191
            ]
          ]
        ]
      }
    },
    {
      "type": "Feature",
      "properties": {
        "sr_no": 14,
        "plot_type": "Control",
        "parcel_id": "14C"
      },
      "geometry": {
        "type": "Polygon",
        "coordinates": [
          [
            [
              75.747691,
              19.472147
            ],
            [
              75.747066,
              19.472191
            ],
            [
              75.7472,
              19.473178
            ],
            [
              75.747826,
              19.473045
            ],
            [
              75.747691,
              19.472147
            ]
          ]
        ]
      }
    },
    {
      "type": "Feature",
      "properties": {
        "sr_no": 18,
        "plot_type": "Demo",
        "parcel_id": "18D"
      },
      "geometry": {
        "type": "Polygon",
        "coordinates": [
          [
            [
              75.710771,
              19.408916
            ],
            [
              75.710699,
              19.408297
            ],
            [
              75.709198,
              19.408441
            ],
            [
              75.709316,
              19.409041
            ],
            [
              75.710771,
              19.408916
            ]
          ]
        ]
      }
    },
    {
      "type": "Feature",
      "properties": {
        "sr_no": 18,
        "plot_type": "Control",
        "parcel_id": "18C"
      },
      "geometry": {
        "type": "Polygon",
        "coordinates": [
          [
            [
              75.710874,
              19.409478
            ],
            [
              75.710771,
              19.408916
            ],
            [
              75.709316,
              19.409041
            ],
            [
              75.709374,
              19.409613
            ],
            [
              75.710874,
              19.409478
            ]
          ]
        ]
      }
    },
    {
      "type": "Feature",
      "properties": {
        "sr_no": 19,
        "plot_type": "Demo",
        "parcel_id": "19D"
      },
      "geometry": {
        "type": "Polygon",
        "coordinates": [
          [
            [
              75.697158,
              19.411469
            ],
            [
              75.697218,
              19.412087
            ],
            [
              75.696668,
              19.412145
            ],
            [
              75.696618,
              19.411516
            ],
            [
              75.697158,
              19.411469
            ]
          ]
        ]
      }
    },
    {
      "type": "Feature",
      "properties": {
        "sr_no": 19,
        "plot_type": "Control",
        "parcel_id": "19C"
      },
      "geometry": {
        "type": "Polygon",
        "coordinates": [
          [
            [
              75.697647,
              19.411377
            ],
            [
              75.697214,
              19.411521
            ],
            [
              75.697245,
              19.412263
            ],
            [
              75.697744,
              19.412181
            ],
            [
              75.697647,
              19.411377
            ]
          ]
        ]
      }
    }
  ]
}